[{"OBJECT_NAME":"SORCE","OBJECT_ID":"2003-004A","EPOCH":"2026-03-09T10:24:05.899968","MEAN_MOTION":15.03094555,"ECCENTRICITY":0.00159303,"INCLINATION":39.9899,"RA_OF_ASC_NODE":110.5611,"ARG_OF_PERICENTER":53.0009,"MEAN_ANOMALY":307.2241,"EPHEMERIS_TYPE":0,"CLASSIFICATION_TYPE":"U","NORAD_CAT_ID":27651,"ELEMENT_SET_NO":999,"REV_AT_EPOCH":25688,"BSTAR":0.00029572763,"MEAN_MOTION_DOT":3.92e-5,"MEAN_MOTION_DDOT":0},{"OBJECT_NAME":"STARLINK-2145","OBJECT_ID":"2021-041C","EPOCH":"2026-03-09T12:22:26.042880","MEAN_MOTION":15.06401977,"ECCENTRICITY":0.00015102,"INCLINATION":53.0553,"RA_OF_ASC_NODE":142.4017,"ARG_OF_PERICENTER":101.3024,"MEAN_ANOMALY":258.8135,"EPHEMERIS_TYPE":0,"CLASSIFICATION_TYPE":"U","NORAD_CAT_ID":48555,"ELEMENT_SET_NO":999,"REV_AT_EPOCH":26503,"BSTAR":2.543505e-6,"MEAN_MOTION_DOT":-2.44e-6,"MEAN_MOTION_DDOT":0}]
