SORCE                   
1 27651U 03004A   26068.43340162  .00003920  00000+0  29573-3 0  9995
2 27651  39.9899 110.5611 0015930  53.0009 307.2241 15.03094555256885
STARLINK-2145           
1 48555U 21041C   26068.51557920 -.00000244  00000+0  25435-5 0  9995
2 48555  53.0553 142.4017 0001510 101.3024 258.8135 15.06401977265035
